{"fetched_at":"2026-03-30T06:02:59Z","count":15439,"tles":[{"name":"STARLINK-4080","line1":"1 52835U 22062F   26087.90084724 -.00000466  00000+0 -11206-4 0  9993","line2":"2 52835  53.2170 307.8798 0001264  84.5569 275.5567 15.08840425208683","category":"Starlink"}]}